CZ-2C R/B               
1 54039U 22132E   26030.97859892  .00037799  00000+0  49004-3 0  9993
2 54039  97.2948  33.2523 0017057 224.3829 135.6061 15.58599644184494
GSLV R/B                
1 54149U 22138AN  26030.94364454  .00004210  00000+0  36722-3 0  9998
2 54149  87.3847 178.9938 0019509 291.3413  68.5736 14.96475906178286
XRISM                   
1 57800U 23137A   26031.05946459  .00006095  00000+0  35017-3 0  9998
2 57800  31.0007 166.9627 0008010  21.8128 338.2851 15.11009038132094
ACS3                    
1 59588U 24077B   26030.88957239  .00025118  00000+0  20865-1 0  9995
2 59588  97.2272 340.4967 0046440 199.5872 160.3508 13.88028094 88954
SZ-21 MODULE            
1 66515U 25246C   26031.15490252  .00029762  00000+0  28819-3 0  9998
2 66515  41.4761  73.9156 0003412 260.2908  99.7547 15.65726636 12186
