CCSDS_OMM_VERS = 2.0
CREATION_DATE  = 
ORIGINATOR     = 

OBJECT_NAME    = CZ-2C R/B
OBJECT_ID      = 2022-132E
CENTER_NAME    = EARTH
REF_FRAME      = TEME
TIME_SYSTEM    = UTC
MEAN_ELEMENT_THEORY = SGP/SGP4

EPOCH          = 2026-01-30T23:29:10.946688
MEAN_MOTION    = 15.58599644
ECCENTRICITY   = .0017057
INCLINATION    = 97.2948
RA_OF_ASC_NODE = 33.2523
ARG_OF_PERICENTER = 224.3829
MEAN_ANOMALY   = 135.6061

EPHEMERIS_TYPE = 0
CLASSIFICATION_TYPE = U
NORAD_CAT_ID   = 54039
ELEMENT_SET_NO = 999
REV_AT_EPOCH   = 18449
BSTAR          = .49004E-3
MEAN_MOTION_DOT = .37799E-3
MEAN_MOTION_DDOT = 0

CCSDS_OMM_VERS = 2.0
CREATION_DATE  = 
ORIGINATOR     = 

OBJECT_NAME    = GSLV R/B
OBJECT_ID      = 2022-138AN
CENTER_NAME    = EARTH
REF_FRAME      = TEME
TIME_SYSTEM    = UTC
MEAN_ELEMENT_THEORY = SGP/SGP4

EPOCH          = 2026-01-30T22:38:50.888256
MEAN_MOTION    = 14.96475906
ECCENTRICITY   = .0019509
INCLINATION    = 87.3847
RA_OF_ASC_NODE = 178.9938
ARG_OF_PERICENTER = 291.3413
MEAN_ANOMALY   = 68.5736

EPHEMERIS_TYPE = 0
CLASSIFICATION_TYPE = U
NORAD_CAT_ID   = 54149
ELEMENT_SET_NO = 999
REV_AT_EPOCH   = 17828
BSTAR          = .36722E-3
MEAN_MOTION_DOT = .421E-4
MEAN_MOTION_DDOT = 0

CCSDS_OMM_VERS = 2.0
CREATION_DATE  = 
ORIGINATOR     = 

OBJECT_NAME    = XRISM
OBJECT_ID      = 2023-137A
CENTER_NAME    = EARTH
REF_FRAME      = TEME
TIME_SYSTEM    = UTC
MEAN_ELEMENT_THEORY = SGP/SGP4

EPOCH          = 2026-01-31T01:25:37.740576
MEAN_MOTION    = 15.11009038
ECCENTRICITY   = .000801
INCLINATION    = 31.0007
RA_OF_ASC_NODE = 166.9627
ARG_OF_PERICENTER = 21.8128
MEAN_ANOMALY   = 338.2851

EPHEMERIS_TYPE = 0
CLASSIFICATION_TYPE = U
NORAD_CAT_ID   = 57800
ELEMENT_SET_NO = 999
REV_AT_EPOCH   = 13209
BSTAR          = .35017E-3
MEAN_MOTION_DOT = .6095E-4
MEAN_MOTION_DDOT = 0

CCSDS_OMM_VERS = 2.0
CREATION_DATE  = 
ORIGINATOR     = 

OBJECT_NAME    = ACS3
OBJECT_ID      = 2024-077B
CENTER_NAME    = EARTH
REF_FRAME      = TEME
TIME_SYSTEM    = UTC
MEAN_ELEMENT_THEORY = SGP/SGP4

EPOCH          = 2026-01-30T21:20:59.054496
MEAN_MOTION    = 13.88028094
ECCENTRICITY   = .004644
INCLINATION    = 97.2272
RA_OF_ASC_NODE = 340.4967
ARG_OF_PERICENTER = 199.5872
MEAN_ANOMALY   = 160.3508

EPHEMERIS_TYPE = 0
CLASSIFICATION_TYPE = U
NORAD_CAT_ID   = 59588
ELEMENT_SET_NO = 999
REV_AT_EPOCH   = 8895
BSTAR          = .20865E-1
MEAN_MOTION_DOT = .25118E-3
MEAN_MOTION_DDOT = 0

CCSDS_OMM_VERS = 2.0
CREATION_DATE  = 
ORIGINATOR     = 

OBJECT_NAME    = SZ-21 MODULE
OBJECT_ID      = 2025-246C
CENTER_NAME    = EARTH
REF_FRAME      = TEME
TIME_SYSTEM    = UTC
MEAN_ELEMENT_THEORY = SGP/SGP4

EPOCH          = 2026-01-31T03:43:03.577728
MEAN_MOTION    = 15.65726636
ECCENTRICITY   = .0003412
INCLINATION    = 41.4761
RA_OF_ASC_NODE = 73.9156
ARG_OF_PERICENTER = 260.2908
MEAN_ANOMALY   = 99.7547

EPHEMERIS_TYPE = 0
CLASSIFICATION_TYPE = U
NORAD_CAT_ID   = 66515
ELEMENT_SET_NO = 999
REV_AT_EPOCH   = 1218
BSTAR          = .28819E-3
MEAN_MOTION_DOT = .29762E-3
MEAN_MOTION_DDOT = 0

